start=new Date('2022-09-19T00:00:00.000Z').valueOf();
sats=[{"TLE_LINE1":"1 53688U 22105AS  22261.91667824 -.01216036  00000-0 -17023-1 0  9991","MEAN_ELEMENT_THEORY":"SGP4","ARG_OF_PERICENTER":"115.3547","PERIAPSIS":"387.594","DECAY_DATE":null,"EPHEMERIS_TYPE":"0","OBJECT_TYPE":"PAYLOAD","LAUNCH_DATE":"2022-08-31","TLE_LINE2":"2 53688  97.6555 140.5533 0001636 115.3547 284.7121 15.59639656  1306","MEAN_ANOMALY":"284.7121","RCS_SIZE":"LARGE","NORAD_CAT_ID":"53688","MEAN_MOTION_DOT":"-0.01216036","SITE":"AFWTR","RA_OF_ASC_NODE":"140.5533","OBJECT_ID":"2022-105AS","ECCENTRICITY":"0.00016360","SEMIMAJOR_AXIS":"6766.836","FILE":"3577422","COUNTRY_CODE":"US","EPOCH":"2022-09-18T22:00:00.999936","MEAN_MOTION":"15.59639656","CLASSIFICATION_TYPE":"U","REV_AT_EPOCH":"130","REF_FRAME":"TEME","INCLINATION":"97.6555","GP_ID":"212968380","OBJECT_NAME":"STARLINK-4571","TIME_SYSTEM":"UTC","APOAPSIS":"389.808","PERIOD":"92.329","ELEMENT_SET_NO":"999","MEAN_MOTION_DDOT":"0.0000000000000","BSTAR":"-0.01702300000000","CENTER_NAME":"EARTH"},{"OBJECT_NAME":"STARLINK-4562","APOAPSIS":"390.138","PERIOD":"92.330","ELEMENT_SET_NO":"999","TIME_SYSTEM":"UTC","MEAN_MOTION_DDOT":"0.0000000000000","CENTER_NAME":"EARTH","BSTAR":"-0.01682400000000","MEAN_MOTION":"15.59630529","CLASSIFICATION_TYPE":"U","REF_FRAME":"TEME","REV_AT_EPOCH":"322","GP_ID":"212941571","INCLINATION":"97.6555","FILE":"3577365","SEMIMAJOR_AXIS":"6766.863","COUNTRY_CODE":"US","EPOCH":"2022-09-18T22:00:00.999936","SITE":"AFWTR","RA_OF_ASC_NODE":"140.5528","OBJECT_ID":"2022-105AT","ECCENTRICITY":"0.00020850","NORAD_CAT_ID":"53689","MEAN_MOTION_DOT":"-0.01203035","OBJECT_TYPE":"PAYLOAD","TLE_LINE2":"2 53689  97.6555 140.5528 0002085 142.4247 257.0540 15.59630529  3229","LAUNCH_DATE":"2022-08-31","MEAN_ANOMALY":"257.0540","RCS_SIZE":"LARGE","ARG_OF_PERICENTER":"142.4247","DECAY_DATE":null,"PERIAPSIS":"387.317","EPHEMERIS_TYPE":"0","TLE_LINE1":"1 53689U 22105AT  22261.91667824 -.01203035  00000-0 -16824-1 0  9995","MEAN_ELEMENT_THEORY":"SGP4"},{"ECCENTRICITY":"0.00018000","OBJECT_ID":"2022-105AU","SITE":"AFWTR","RA_OF_ASC_NODE":"140.5531","EPOCH":"2022-09-18T22:00:00.999936","FILE":"3577422","SEMIMAJOR_AXIS":"6766.858","COUNTRY_CODE":"US","REF_FRAME":"TEME","REV_AT_EPOCH":"130","GP_ID":"212968439","INCLINATION":"97.6555","MEAN_MOTION":"15.59632053","CLASSIFICATION_TYPE":"U","MEAN_MOTION_DDOT":"0.0000000000000","CENTER_NAME":"EARTH","BSTAR":"-0.01687200000000","OBJECT_NAME":"STARLINK-4570","APOAPSIS":"389.941","TIME_SYSTEM":"UTC","PERIOD":"92.329","ELEMENT_SET_NO":"999","MEAN_ELEMENT_THEORY":"SGP4","TLE_LINE1":"1 53690U 22105AU  22261.91667824 -.01206074  00000-0 -16872-1 0  9996","EPHEMERIS_TYPE":"0","ARG_OF_PERICENTER":"130.9567","DECAY_DATE":null,"PERIAPSIS":"387.505","MEAN_ANOMALY":"270.2976","RCS_SIZE":"LARGE","OBJECT_TYPE":"PAYLOAD","TLE_LINE2":"2 53690  97.6555 140.5531 0001800 130.9567 270.2976 15.59632053  1307","LAUNCH_DATE":"2022-08-31","MEAN_MOTION_DOT":"-0.01206074","NORAD_CAT_ID":"53690"},{"TLE_LINE2":"2 53691  97.6555 140.5520 0002099 142.8451 257.8179 15.59630067  3223","LAUNCH_DATE":"2022-08-31","OBJECT_TYPE":"PAYLOAD","RCS_SIZE":"LARGE","MEAN_ANOMALY":"257.8179","NORAD_CAT_ID":"53691","MEAN_MOTION_DOT":"-0.01203022","TLE_LINE1":"1 53691U 22105AV  22261.91667824 -.01203022  00000-0 -16824-1 0  9994","MEAN_ELEMENT_THEORY":"SGP4","DECAY_DATE":null,"PERIAPSIS":"387.309","ARG_OF_PERICENTER":"142.8451","EPHEMERIS_TYPE":"0","MEAN_MOTION":"15.59630067","CLASSIFICATION_TYPE":"U","GP_ID":"212941082","INCLINATION":"97.6555","REF_FRAME":"TEME","REV_AT_EPOCH":"322","APOAPSIS":"390.149","PERIOD":"92.330","TIME_SYSTEM":"UTC","ELEMENT_SET_NO":"999","OBJECT_NAME":"STARLINK-4560","CENTER_NAME":"EARTH","BSTAR":"-0.01682400000000","MEAN_MOTION_DDOT":"0.0000000000000","OBJECT_ID":"2022-105AV","SITE":"AFWTR","RA_OF_ASC_NODE":"140.5520","ECCENTRICITY":"0.00020990","COUNTRY_CODE":"US","FILE":"3577358","SEMIMAJOR_AXIS":"6766.864","EPOCH":"2022-09-18T22:00:00.999936"},{"OBJECT_ID":"2022-105AW","SITE":"AFWTR","RA_OF_ASC_NODE":"140.5526","ECCENTRICITY":"0.00018970","COUNTRY_CODE":"US","FILE":"3577377","SEMIMAJOR_AXIS":"6766.852","EPOCH":"2022-09-18T22:00:00.999936","CLASSIFICATION_TYPE":"U","MEAN_MOTION":"15.59634228","GP_ID":"212941842","INCLINATION":"97.6554","REF_FRAME":"TEME","REV_AT_EPOCH":"322","TIME_SYSTEM":"UTC","APOAPSIS":"390.001","PERIOD":"92.329","ELEMENT_SET_NO":"999","OBJECT_NAME":"STARLINK-4572","CENTER_NAME":"EARTH","BSTAR":"-0.01692600000000","MEAN_MOTION_DDOT":"0.0000000000000","TLE_LINE1":"1 53692U 22105AW  22261.91667824 -.01209678  00000-0 -16926-1 0  9991","MEAN_ELEMENT_THEORY":"SGP4","DECAY_DATE":null,"PERIAPSIS":"387.433","ARG_OF_PERICENTER":"134.3812","EPHEMERIS_TYPE":"0","TLE_LINE2":"2 53692  97.6554 140.5526 0001897 134.3812 267.4645 15.59634228  3229","LAUNCH_DATE":"2022-08-31","OBJECT_TYPE":"PAYLOAD","RCS_SIZE":"LARGE","MEAN_ANOMALY":"267.4645","NORAD_CAT_ID":"53692","MEAN_MOTION_DOT":"-0.01209678"},{"MEAN_MOTION_DOT":"-0.01212188","NORAD_CAT_ID":"53693","MEAN_ANOMALY":"277.3242","RCS_SIZE":"LARGE","OBJECT_TYPE":"PAYLOAD","LAUNCH_DATE":"2022-08-31","TLE_LINE2":"2 53693  97.6555 140.5520 0001720 125.1125 277.3242 15.59635984  3228","EPHEMERIS_TYPE":"0","ARG_OF_PERICENTER":"125.1125","PERIAPSIS":"387.548","DECAY_DATE":null,"MEAN_ELEMENT_THEORY":"SGP4","TLE_LINE1":"1 53693U 22105AX  22261.91667824 -.01212188  00000-0 -16965-1 0  9995","MEAN_MOTION_DDOT":"0.0000000000000","BSTAR":"-0.01696500000000","CENTER_NAME":"EARTH","OBJECT_NAME":"STARLINK-4566","ELEMENT_SET_NO":"999","APOAPSIS":"389.876","PERIOD":"92.329","TIME_SYSTEM":"UTC","REV_AT_EPOCH":"322","REF_FRAME":"TEME","INCLINATION":"97.6555","GP_ID":"212941579","CLASSIFICATION_TYPE":"U","MEAN_MOTION":"15.59635984","EPOCH":"2022-09-18T22:00:00.999936","SEMIMAJOR_AXIS":"6766.847","FILE":"3577358","COUNTRY_CODE":"US","ECCENTRICITY":"0.00017200","SITE":"AFWTR","RA_OF_ASC_NODE":"140.5520","OBJECT_ID":"2022-105AX"},{"SEMIMAJOR_AXIS":"6727.619","FILE":"3577422","COUNTRY_CODE":"US","EPOCH":"2022-09-18T22:00:00.999936","OBJECT_ID":"2022-107A","SITE":"AFETR","RA_OF_ASC_NODE":"204.7024","ECCENTRICITY":"0.00013220","OBJECT_NAME":"STARLINK-4725","APOAPSIS":"350.373","TIME_SYSTEM":"UTC","PERIOD":"91.528","ELEMENT_SET_NO":"999","MEAN_MOTION_DDOT":"0.0000000000000","BSTAR":"-0.00042148000000","CENTER_NAME":"EARTH","CLASSIFICATION_TYPE":"U","MEAN_MOTION":"15.73296928","REV_AT_EPOCH":"130","REF_FRAME":"TEME","INCLINATION":"53.2139","GP_ID":"212968591","ARG_OF_PERICENTER":"124.5297","PERIAPSIS":"348.594","DECAY_DATE":null,"EPHEMERIS_TYPE":"0","TLE_LINE1":"1 53700U 22107A   22261.91667824 -.00059600  00000-0 -42148-3 0  9997","MEAN_ELEMENT_THEORY":"SGP4","NORAD_CAT_ID":"53700","MEAN_MOTION_DOT":"-0.00059600","OBJECT_TYPE":"PAYLOAD","LAUNCH_DATE":"2022-09-05","TLE_LINE2":"2 53700  53.2139 204.7024 0001322 124.5297 139.4144 15.73296928  1309","MEAN_ANOMALY":"139.4144","RCS_SIZE":"LARGE"},{"TIME_SYSTEM":"UTC","APOAPSIS":"350.256","PERIOD":"91.527","ELEMENT_SET_NO":"999","OBJECT_NAME":"STARLINK-4711","BSTAR":"-0.00081786000000","CENTER_NAME":"EARTH","MEAN_MOTION_DDOT":"0.0000000000000","MEAN_MOTION":"15.73304336","CLASSIFICATION_TYPE":"U","INCLINATION":"53.2138","GP_ID":"212967924","REV_AT_EPOCH":"130","REF_FRAME":"TEME","COUNTRY_CODE":"US","SEMIMAJOR_AXIS":"6727.598","FILE":"3577422","EPOCH":"2022-09-18T22:00:00.999936","OBJECT_ID":"2022-107B","SITE":"AFETR","RA_OF_ASC_NODE":"204.7010","ECCENTRICITY":"0.00011790","NORAD_CAT_ID":"53701","MEAN_MOTION_DOT":"-0.00114361","LAUNCH_DATE":"2022-09-05","TLE_LINE2":"2 53701  53.2138 204.7010 0001179 128.3308 136.2284 15.73304336  1302","OBJECT_TYPE":"PAYLOAD","RCS_SIZE":"LARGE","MEAN_ANOMALY":"136.2284","PERIAPSIS":"348.670","DECAY_DATE":null,"ARG_OF_PERICENTER":"128.3308","EPHEMERIS_TYPE":"0","TLE_LINE1":"1 53701U 22107B   22261.91667824 -.00114361  00000-0 -81786-3 0  9995","MEAN_ELEMENT_THEORY":"SGP4"},{"APOAPSIS":"350.609","TIME_SYSTEM":"UTC","PERIOD":"91.528","ELEMENT_SET_NO":"999","OBJECT_NAME":"STARLINK-4724","BSTAR":"-0.00049255000000","CENTER_NAME":"EARTH","MEAN_MOTION_DDOT":"0.0000000000000","MEAN_MOTION":"15.73286566","CLASSIFICATION_TYPE":"U","INCLINATION":"53.2140","GP_ID":"212968230","REV_AT_EPOCH":"130","REF_FRAME":"TEME","COUNTRY_CODE":"US","SEMIMAJOR_AXIS":"6727.648","FILE":"3577422","EPOCH":"2022-09-18T22:00:00.999936","RA_OF_ASC_NODE":"204.6986","SITE":"AFETR","OBJECT_ID":"2022-107C","ECCENTRICITY":"0.00016290","NORAD_CAT_ID":"53702","MEAN_MOTION_DOT":"-0.00069437","LAUNCH_DATE":"2022-09-05","TLE_LINE2":"2 53702  53.2140 204.6986 0001629 126.7246 139.0294 15.73286566  1306","OBJECT_TYPE":"PAYLOAD","RCS_SIZE":"LARGE","MEAN_ANOMALY":"139.0294","PERIAPSIS":"348.417","DECAY_DATE":null,"ARG_OF_PERICENTER":"126.7246","EPHEMERIS_TYPE":"0","TLE_LINE1":"1 53702U 22107C   22261.91667824 -.00069437  00000-0 -49255-3 0  9994","MEAN_ELEMENT_THEORY":"SGP4"},{"EPOCH":"2022-09-18T22:00:00.999936","COUNTRY_CODE":"US","FILE":"3577422","SEMIMAJOR_AXIS":"6727.695","ECCENTRICITY":"0.00012420","OBJECT_ID":"2022-107D","SITE":"AFETR","RA_OF_ASC_NODE":"204.7033","CENTER_NAME":"EARTH","BSTAR":"-0.00047804000000","MEAN_MOTION_DDOT":"0.0000000000000","ELEMENT_SET_NO":"999","APOAPSIS":"350.396","PERIOD":"91.529","TIME_SYSTEM":"UTC","OBJECT_NAME":"STARLINK-4731","GP_ID":"212967658","INCLINATION":"53.2136","REF_FRAME":"TEME","REV_AT_EPOCH":"130","CLASSIFICATION_TYPE":"U","MEAN_MOTION":"15.73270179","EPHEMERIS_TYPE":"0","DECAY_DATE":null,"PERIAPSIS":"348.725","ARG_OF_PERICENTER":"122.5430","MEAN_ELEMENT_THEORY":"SGP4","TLE_LINE1":"1 53703U 22107D   22261.91667824 -.00067375  00000-0 -47804-3 0  9992","MEAN_MOTION_DOT":"-0.00067375","NORAD_CAT_ID":"53703","RCS_SIZE":"LARGE","MEAN_ANOMALY":"140.8722","TLE_LINE2":"2 53703  53.2136 204.7033 0001242 122.5430 140.8722 15.73270179  1305","LAUNCH_DATE":"2022-09-05","OBJECT_TYPE":"PAYLOAD"}];
